[{"OBJECT_NAME":"STARLINK-3671","OBJECT_ID":"2022-025S","EPOCH":"2026-03-09T05:20:16.096128","MEAN_MOTION":15.06419252,"ECCENTRICITY":0.00012793,"INCLINATION":53.0555,"RA_OF_ASC_NODE":32.9827,"ARG_OF_PERICENTER":85.7443,"MEAN_ANOMALY":274.3692,"EPHEMERIS_TYPE":0,"CLASSIFICATION_TYPE":"U","NORAD_CAT_ID":51972,"ELEMENT_SET_NO":999,"REV_AT_EPOCH":22085,"BSTAR":0.0002181368,"MEAN_MOTION_DOT":2.971e-5,"MEAN_MOTION_DDOT":0},{"OBJECT_NAME":"MERIDIAN 4","OBJECT_ID":"2011-018A","EPOCH":"2026-03-08T11:05:21.012000","MEAN_MOTION":2.01494324,"ECCENTRICITY":0.75044713,"INCLINATION":62.1191,"RA_OF_ASC_NODE":90.149,"ARG_OF_PERICENTER":264.4674,"MEAN_ANOMALY":14.7302,"EPHEMERIS_TYPE":0,"CLASSIFICATION_TYPE":"U","NORAD_CAT_ID":37398,"ELEMENT_SET_NO":999,"REV_AT_EPOCH":10874,"BSTAR":0.0030079931,"MEAN_MOTION_DOT":0.00011881,"MEAN_MOTION_DDOT":0}]
